ORBCOMM FM24            
1 25478U 98053D   24282.58447586  .00012516  00000+0  42558-2 0  9996
2 25478  45.0094  20.8795 0000731 263.2228  96.8537 14.36622026361243
ORBCOMM FM25            
1 25479U 98053E   24282.55260603  .00013066  00000+0  44414-2 0  9991
2 25479  45.0084  19.2832 0001765  69.2488 290.8549 14.36609303361531
ORBCOMM FM26            
1 25480U 98053F   24282.69362808  .00010469  00000+0  36204-2 0  9990
2 25480  45.0080  13.4446 0004056  97.6940 262.4368 14.35899687361483
ORBCOMM FM27            
1 25481U 98053G   24282.68099316  .00011884  00000+0  40454-2 0  9995
2 25481  45.0067  18.9323 0002210 237.2496 122.8139 14.36599931361486
ORBCOMM FM28            
1 25482U 98053H   24282.48588623  .00010585  00000+0  35841-2 0  9999
2 25482  45.0058 317.8562 0002006 143.8766 216.2218 14.36944019362307
ORBCOMM FM30            
1 25980U 99065A   24282.78024952  .00005615  00000+0  19600-2 0  9992
2 25980  45.0301 198.7120 0005128 192.2433 167.8291 14.36040665298296
ORBCOMM FM31            
1 25981U 99065B   24282.46863729  .00010822  00000+0  37321-2 0  9997
2 25981  45.0212 193.7802 0002796 225.5631 134.4989 14.36016888298775
ORBCOMM FM32            
1 25982U 99065C   24282.48500552  .00010186  00000+0  35853-2 0  9993
2 25982  45.0143 208.5683 0004904 223.5499 136.4961 14.35037679298552
